{"type": "FeatureCollection", "features": [ {"type": "Feature", "properties": {"norad_id": 34979, "name": "COSMOS 2251 DEB", "group": "cosmos-2251-debris", "lat": 71.6002161840665, "lon": 9.355580489455717, "alt_km": 647.7668838652698, "timestamp": "2025-12-22T04:03:39.564147+00:00", "meta": {"OBJECT_NAME": "COSMOS 2251 DEB", "OBJECT_ID": "1993-036AFJ", "EPOCH": "2025-12-21T03:16:18.157728", "MEAN_MOTION": 14.79486522, "ECCENTRICITY": 0.00491891, "INCLINATION": 74.0394, "RA_OF_ASC_NODE": 250.7421, "ARG_OF_PERICENTER": 326.962, "MEAN_ANOMALY": 32.8485, "EPHEMERIS_TYPE": 0, "CLASSIFICATION_TYPE": "U", "NORAD_CAT_ID": 34979, "ELEMENT_SET_NO": 999, "REV_AT_EPOCH": 88344, "BSTAR": 0.00070797417, "MEAN_MOTION_DOT": 5.369e-05, "MEAN_MOTION_DDOT": 0}, "tle": {"line1": "1 34979U 93036AFJ 25355.13632127  .00005369  00000+0  70797-3 0  9993", "line2": "2 34979  74.0394 250.7421 0049189 326.9620  32.8485 14.79486522883446"}}, "geometry": {"type": "Point", "coordinates": [9.355580489455717, 71.6002161840665]}}, {"type": "Feature", "properties": {"norad_id": 34990, "name": "COSMOS 2251 DEB", "group": "cosmos-2251-debris", "lat": 25.38466043368141, "lon": -118.33854049694268, "alt_km": 749.7735417454569, "timestamp": "2025-12-22T04:03:39.564157+00:00", "meta": {"OBJECT_NAME": "COSMOS 2251 DEB", "OBJECT_ID": "1993-036AFN", "EPOCH": "2025-12-15T10:28:28.781472", "MEAN_MOTION": 14.42382837, "ECCENTRICITY": 0.00165597, "INCLINATION": 74.0457, "RA_OF_ASC_NODE": 246.3361, "ARG_OF_PERICENTER": 308.9911, "MEAN_ANOMALY": 50.977, "EPHEMERIS_TYPE": 0, "CLASSIFICATION_TYPE": "U", "NORAD_CAT_ID": 34990, "ELEMENT_SET_NO": 999, "REV_AT_EPOCH": 87385, "BSTAR": 0.00031884459, "MEAN_MOTION_DOT": 1.029e-05, "MEAN_MOTION_DDOT": 0}, "tle": {"line1": "1 34990U 93036AFN 25349.43644423  .00001029  00000+0  31884-3 0  9997", "line2": "2 34990  74.0457 246.3361 0016559 308.9911  50.9770 14.42382837873857"}}, "geometry": {"type": "Point", "coordinates": [-118.33854049694268, 25.38466043368141]}}, {"type": "Feature", "properties": {"norad_id": 34997, "name": "COSMOS 2251 DEB", "group": "cosmos-2251-debris", "lat": -53.82122520668535, "lon": -89.84326652780814, "alt_km": 690.1284523698232, "timestamp": "2025-12-22T04:03:39.564167+00:00", "meta": {"OBJECT_NAME": "COSMOS 2251 DEB", "OBJECT_ID": "1993-036AFV", "EPOCH": "2025-12-14T03:40:01.084512", "MEAN_MOTION": 14.45585468, "ECCENTRICITY": 0.00977103, "INCLINATION": 73.8806, "RA_OF_ASC_NODE": 308.5363, "ARG_OF_PERICENTER": 283.3348, "MEAN_ANOMALY": 75.6929, "EPHEMERIS_TYPE": 0, "CLASSIFICATION_TYPE": "U", "NORAD_CAT_ID": 34997, "ELEMENT_SET_NO": 999, "REV_AT_EPOCH": 70767, "BSTAR": 0.0019000145, "MEAN_MOTION_DOT": 7.095e-05, "MEAN_MOTION_DDOT": 0}, "tle": {"line1": "1 34997U 93036AFV 25348.15279033  .00007095  00000+0  19000-2 0  9997", "line2": "2 34997  73.8806 308.5363 0097710 283.3348  75.6929 14.45585468707674"}}, "geometry": {"type": "Point", "coordinates": [-89.84326652780814, -53.82122520668535]}}, {"type": "Feature", "properties": {"norad_id": 34998, "name": "COSMOS 2251 DEB", "group": "cosmos-2251-debris", "lat": -51.348291060205824, "lon": 121.26014080142562, "alt_km": 720.0764605475797, "timestamp": "2025-12-22T04:03:39.564177+00:00", "meta": {"OBJECT_NAME": "COSMOS 2251 DEB", "OBJECT_ID": "1993-036AFW", "EPOCH": "2025-12-21T16:46:04.121184", "MEAN_MOTION": 14.49315499, "ECCENTRICITY": 0.0021439, "INCLINATION": 74.0102, "RA_OF_ASC_NODE": 143.1537, "ARG_OF_PERICENTER": 287.4594, "MEAN_ANOMALY": 84.0884, "EPHEMERIS_TYPE": 0, "CLASSIFICATION_TYPE": "U", "NORAD_CAT_ID": 34998, "ELEMENT_SET_NO": 999, "REV_AT_EPOCH": 87550, "BSTAR": 0.00046619, "MEAN_MOTION_DOT": 1.757e-05, "MEAN_MOTION_DDOT": 0}, "tle": {"line1": "1 34998U 93036AFW 25355.69865881  .00001757  00000+0  46619-3 0  9993", "line2": "2 34998  74.0102 143.1537 0021439 287.4594  84.0884 14.49315499875507"}}, "geometry": {"type": "Point", "coordinates": [121.26014080142562, -51.348291060205824]}}, {"type": "Feature", "properties": {"norad_id": 35012, "name": "COSMOS 2251 DEB", "group": "cosmos-2251-debris", "lat": 27.54305348865556, "lon": -94.45517111420088, "alt_km": 729.3870711627842, "timestamp": "2025-12-22T04:03:39.564187+00:00", "meta": {"OBJECT_NAME": "COSMOS 2251 DEB", "OBJECT_ID": "1993-036AFZ", "EPOCH": "2025-12-21T00:46:53.304096", "MEAN_MOTION": 14.45558565, "ECCENTRICITY": 0.00816484, "INCLINATION": 74.0209, "RA_OF_ASC_NODE": 96.2596, "ARG_OF_PERICENTER": 234.7993, "MEAN_ANOMALY": 124.5502, "EPHEMERIS_TYPE": 0, "CLASSIFICATION_TYPE": "U", "NORAD_CAT_ID": 35012, "ELEMENT_SET_NO": 999, "REV_AT_EPOCH": 87681, "BSTAR": 0.00012761293, "MEAN_MOTION_DOT": 4.4e-06, "MEAN_MOTION_DDOT": 0}, "tle": {"line1": "1 35012U 93036AFZ 25355.03256139  .00000440  00000+0  12761-3 0  9998", "line2": "2 35012  74.0209  96.2596 0081648 234.7993 124.5502 14.45558565876813"}}, "geometry": {"type": "Point", "coordinates": [-94.45517111420088, 27.54305348865556]}}, {"type": "Feature", "properties": {"norad_id": 35014, "name": "COSMOS 2251 DEB", "group": "cosmos-2251-debris", "lat": -6.505289122492767, "lon": -153.0604269251284, "alt_km": 642.7508272583282, "timestamp": "2025-12-22T04:03:39.564196+00:00", "meta": {"OBJECT_NAME": "COSMOS 2251 DEB", "OBJECT_ID": "1993-036AGB", "EPOCH": "2025-12-17T09:17:45.359520", "MEAN_MOTION": 14.75277506, "ECCENTRICITY": 0.00070196, "INCLINATION": 73.9998, "RA_OF_ASC_NODE": 34.4305, "ARG_OF_PERICENTER": 212.3979, "MEAN_ANOMALY": 147.6764, "EPHEMERIS_TYPE": 0, "CLASSIFICATION_TYPE": "U", "NORAD_CAT_ID": 35014, "ELEMENT_SET_NO": 999, "REV_AT_EPOCH": 71405, "BSTAR": 0.0010947042, "MEAN_MOTION_DOT": 7.39e-05, "MEAN_MOTION_DDOT": 0}, "tle": {"line1": "1 35014U 93036AGB 25351.38733055  .00007390  00000+0  10947-2 0  9995", "line2": "2 35014  73.9998  34.4305 0007019 212.3979 147.6764 14.75277506714055"}}, "geometry": {"type": "Point", "coordinates": [-153.0604269251284, -6.505289122492767]}}, {"type": "Feature", "properties": {"norad_id": 35015, "name": "COSMOS 2251 DEB", "group": "cosmos-2251-debris", "lat": -26.12094594238047, "lon": -151.104997657418, "alt_km": 759.2282115216476, "timestamp": "2025-12-22T04:03:39.564206+00:00", "meta": {"OBJECT_NAME": "COSMOS 2251 DEB", "OBJECT_ID": "1993-036AGC", "EPOCH": "2025-12-21T09:05:04.900416", "MEAN_MOTION": 14.46918455, "ECCENTRICITY": 0.00743638, "INCLINATION": 73.9465, "RA_OF_ASC_NODE": 218.4969, "ARG_OF_PERICENTER": 85.0123, "MEAN_ANOMALY": 91.7115, "EPHEMERIS_TYPE": 0, "CLASSIFICATION_TYPE": "U", "NORAD_CAT_ID": 35015, "ELEMENT_SET_NO": 999, "REV_AT_EPOCH": 65565, "BSTAR": 0.0005445635, "MEAN_MOTION_DOT": 2.019e-05, "MEAN_MOTION_DDOT": 0}, "tle": {"line1": "1 35015U 93036AGC 25355.37852894  .00002019  00000+0  54456-3 0  9999", "line2": "2 35015  73.9465 218.4969 0074363  85.0123  91.7115 14.46918455655659"}}, "geometry": {"type": "Point", "coordinates": [-151.104997657418, -26.12094594238047]}}, {"type": "Feature", "properties": {"norad_id": 35016, "name": "COSMOS 2251 DEB", "group": "cosmos-2251-debris", "lat": -42.48433707139185, "lon": -98.28441767065861, "alt_km": 825.3814644834501, "timestamp": "2025-12-22T04:03:39.564216+00:00", "meta": {"OBJECT_NAME": "COSMOS 2251 DEB", "OBJECT_ID": "1993-036AGD", "EPOCH": "2025-12-21T01:36:06.995232", "MEAN_MOTION": 14.35074677, "ECCENTRICITY": 0.01140843, "INCLINATION": 73.9302, "RA_OF_ASC_NODE": 279.056, "ARG_OF_PERICENTER": 194.2679, "MEAN_ANOMALY": 186.7266, "EPHEMERIS_TYPE": 0, "CLASSIFICATION_TYPE": "U", "NORAD_CAT_ID": 35016, "ELEMENT_SET_NO": 999, "REV_AT_EPOCH": 86902, "BSTAR": 0.00020302186, "MEAN_MOTION_DOT": 5.95e-06, "MEAN_MOTION_DDOT": 0}, "tle": {"line1": "1 35016U 93036AGD 25355.06674763  .00000595  00000+0  20302-3 0  9993", "line2": "2 35016  73.9302 279.0560 0114084 194.2679 186.7266 14.35074677869021"}}, "geometry": {"type": "Point", "coordinates": [-98.28441767065861, -42.48433707139185]}}, {"type": "Feature", "properties": {"norad_id": 35018, "name": "COSMOS 2251 DEB", "group": "cosmos-2251-debris", "lat": -73.40242690320662, "lon": -10.931900800927167, "alt_km": 1034.5858629984168, "timestamp": "2025-12-22T04:03:39.564226+00:00", "meta": {"OBJECT_NAME": "COSMOS 2251 DEB", "OBJECT_ID": "1993-036AGF", "EPOCH": "2025-12-21T14:27:14.171040", "MEAN_MOTION": 13.67131243, "ECCENTRICITY": 0.0348897, "INCLINATION": 73.9753, "RA_OF_ASC_NODE": 95.386, "ARG_OF_PERICENTER": 2.6305, "MEAN_ANOMALY": 357.6538, "EPHEMERIS_TYPE": 0, "CLASSIFICATION_TYPE": "U", "NORAD_CAT_ID": 35018, "ELEMENT_SET_NO": 999, "REV_AT_EPOCH": 83307, "BSTAR": 0.00070084, "MEAN_MOTION_DOT": 8.72e-06, "MEAN_MOTION_DDOT": 0}, "tle": {"line1": "1 35018U 93036AGF 25355.60224735  .00000872  00000+0  70084-3 0  9995", "line2": "2 35018  73.9753  95.3860 0348897   2.6305 357.6538 13.67131243833078"}}, "geometry": {"type": "Point", "coordinates": [-10.931900800927167, -73.40242690320662]}}, {"type": "Feature", "properties": {"norad_id": 35020, "name": "COSMOS 2251 DEB", "group": "cosmos-2251-debris", "lat": -74.03313737318607, "lon": 91.74699253180826, "alt_km": 631.4200115043959, "timestamp": "2025-12-22T04:03:39.564236+00:00", "meta": {"OBJECT_NAME": "COSMOS 2251 DEB", "OBJECT_ID": "1993-036AGH", "EPOCH": "2025-12-21T12:03:04.140864", "MEAN_MOTION": 14.628171, "ECCENTRICITY": 0.00912732, "INCLINATION": 74.0449, "RA_OF_ASC_NODE": 182.1599, "ARG_OF_PERICENTER": 294.2226, "MEAN_ANOMALY": 64.9423, "EPHEMERIS_TYPE": 0, "CLASSIFICATION_TYPE": "U", "NORAD_CAT_ID": 35020, "ELEMENT_SET_NO": 999, "REV_AT_EPOCH": 88366, "BSTAR": 0.00010380072, "MEAN_MOTION_DOT": 5.28e-06, "MEAN_MOTION_DDOT": 0}, "tle": {"line1": "1 35020U 93036AGH 25355.50213126  .00000528  00000+0  10380-3 0  9990", "line2": "2 35020  74.0449 182.1599 0091273 294.2226  64.9423 14.62817100883663"}}, "geometry": {"type": "Point", "coordinates": [91.74699253180826, -74.03313737318607]}}]}